{
    "links": {
        "self": "http://www.neowsapp.com/rest/v1/neo/3648537?api_key=iIulBulltgU6a56xZRHN4H3l9WmuAYTsLGpBGhQ2"
    },
    "id": "3648537",
    "neo_reference_id": "3648537",
    "name": "(2013 ST19)",
    "designation": "2013 ST19",
    "nasa_jpl_url": "http://ssd.jpl.nasa.gov/sbdb.cgi?sstr=3648537",
    "absolute_magnitude_h": 22.7,
    "estimated_diameter": {
        "kilometers": {
            "estimated_diameter_min": 0.0766575574,
            "estimated_diameter_max": 0.1714115092
        },
        "meters": {
            "estimated_diameter_min": 76.6575573531,
            "estimated_diameter_max": 171.4115092306
        },
        "miles": {
            "estimated_diameter_min": 0.0476327831,
            "estimated_diameter_max": 0.1065101409
        },
        "feet": {
            "estimated_diameter_min": 251.5011804664,
            "estimated_diameter_max": 562.3737359442
        }
    },
    "is_potentially_hazardous_asteroid": false,
    "close_approach_data": [
        {
            "close_approach_date": "2013-09-28",
            "close_approach_date_full": "2013-Sep-28 06:52",
            "epoch_date_close_approach": 1380351120000,
            "relative_velocity": {
                "kilometers_per_second": "12.2566142478",
                "kilometers_per_hour": "44123.8112919716",
                "miles_per_hour": "27416.8204108365"
            },
            "miss_distance": {
                "astronomical": "0.1111191874",
                "lunar": "43.2253638986",
                "kilometers": "16623193.751170838",
                "miles": "10329173.6268320444"
            },
            "orbiting_body": "Earth"
        },
        {
            "close_approach_date": "2014-02-14",
            "close_approach_date_full": "2014-Feb-14 04:39",
            "epoch_date_close_approach": 1392352740000,
            "relative_velocity": {
                "kilometers_per_second": "11.2721917109",
                "kilometers_per_hour": "40579.8901593858",
                "miles_per_hour": "25214.7656382028"
            },
            "miss_distance": {
                "astronomical": "0.3395880742",
                "lunar": "132.0997608638",
                "kilometers": "50801652.577721954",
                "miles": "31566683.1452488052"
            },
            "orbiting_body": "Earth"
        }
    ],
    "orbital_data": {
        "orbit_id": "10",
        "orbit_determination_date": "2017-04-06 08:44:35",
        "first_observation_date": "2013-09-24",
        "last_observation_date": "2013-10-06",
        "data_arc_in_days": 12,
        "observations_used": 53,
        "orbit_uncertainty": "8",
        "minimum_orbit_intersection": ".074739",
        "jupiter_tisserand_invariant": "4.543",
        "epoch_osculation": "2456561.5",
        "eccentricity": ".3466862631282477",
        "semi_major_axis": "1.436012725872403",
        "inclination": "21.12965157592769",
        "ascending_node_longitude": "176.1521303339919",
        "orbital_period": "628.5442529435475",
        "perihelion_distance": ".9381668401350909",
        "perihelion_argument": "243.8929477070819",
        "aphelion_distance": "1.933858611609715",
        "perihelion_time": "2456615.260136055488",
        "mean_anomaly": "329.2087726690042",
        "mean_motion": ".5727520350620934",
        "equinox": "J2000",
        "orbit_class": {
            "orbit_class_type": "APO",
            "orbit_class_description": "Near-Earth asteroid orbits which cross the Earth’s orbit similar to that of 1862 Apollo",
            "orbit_class_range": "a (semi-major axis) > 1.0 AU; q (perihelion) < 1.017 AU"
        }
    },
    "is_sentry_object": false
}